{
"type": "FeatureCollection",
"name": "Education_Julian",
"crs": { "type": "name", "properties": { "name": "urn:ogc:def:crs:OGC:1.3:CRS84" } },
"features": [
{ "type": "Feature", "properties": { "amenity": "education", "name": "Korean School", "opening_hours": "Su 14:00-17:00", "website": "https:\/\/www.lexkoreans.org\/korean-school", "phone": "(412) 916-7619" }, "geometry": { "type": "Point", "coordinates": [ -84.49379431, 37.98297191 ] } },
{ "type": "Feature", "properties": { "amenity": "education", "name": "Bluegrass Youth Ballet", "opening_hours": "Mo-Fr 11:00-20:00, Sa 9:00-14:00", "website": "https:\/\/www.bluegrassyouthballet.org\/", "phone": "(859) 271-4472" }, "geometry": { "type": "Point", "coordinates": [ -84.52803501, 38.01879095 ] } },
{ "type": "Feature", "properties": { "amenity": "education", "name": "Explorium Children's Museum", "opening_hours": "Tu-Sa 10:00-17:00, Su 13:00-17:00", "website": "https:\/\/explorium.com\/", "phone": "(859) 258-3253" }, "geometry": { "type": "Point", "coordinates": [ -84.499994994754616, 38.050067907377731 ] } },
{ "type": "Feature", "properties": { "amenity": "education", "name": "Aviation Museum of Kentucky", "opening_hours": "Tu-Sa 10:00-17:00, Su 13:00-17:00", "website": "https:\/\/www.aviationky.org\/", "phone": "(859) 231-1219" }, "geometry": { "type": "Point", "coordinates": [ -84.598484169904481, 38.033490381852559 ] } }
]
}
